{
  "type": "FeatureCollection",
  "features": [
    {
      "type": "Feature",
      "properties": {
        "norad_id": 66941,
        "name": "STARLINK-36088",
        "group": "last-30-days",
        "lat": -52.40886085608819,
        "lon": -54.439011874871646,
        "alt_km": 325.8014547818884,
        "timestamp": "2025-12-18T07:01:53.342874+00:00",
        "meta_object_name": "STARLINK-36088",
        "meta_object_id": "2025-286S",
        "meta_epoch": "2025-12-17T22:00:01.999584",
        "meta_mean_motion": 15.84642073,
        "meta_eccentricity": 6.997e-05,
        "meta_inclination": 53.1556,
        "meta_ra_of_asc_node": 24.3677,
        "meta_arg_of_pericenter": 87.304,
        "meta_mean_anomaly": 203.5441,
        "meta_ephemeris_type": 0,
        "meta_classification_type": "U",
        "meta_norad_cat_id": 66941,
        "meta_element_set_no": 999,
        "meta_rev_at_epoch": 282,
        "meta_bstar": -0.0064962939,
        "meta_mean_motion_dot": -0.0134343,
        "meta_mean_motion_ddot": 0,
        "tle_line1": "1 66941U 25286S   25351.91668981 -.01343430  00000+0 -64963-2 0  9992",
        "tle_line2": "2 66941  53.1556  24.3677 0000699  87.3040 203.5441 15.84642073  2829"
      },
      "geometry": {
        "type": "Point",
        "coordinates": [
          -54.439011874871646,
          -52.40886085608819
        ]
      }
    },
    {
      "type": "Feature",
      "properties": {
        "norad_id": 66942,
        "name": "STARLINK-36100",
        "group": "last-30-days",
        "lat": -50.78581407355548,
        "lon": -44.315862765909884,
        "alt_km": 325.6336806570107,
        "timestamp": "2025-12-18T07:01:53.342884+00:00",
        "meta_object_name": "STARLINK-36100",
        "meta_object_id": "2025-286T",
        "meta_epoch": "2025-12-17T22:00:01.999584",
        "meta_mean_motion": 15.8494213,
        "meta_eccentricity": 4.04e-05,
        "meta_inclination": 53.1553,
        "meta_ra_of_asc_node": 24.3545,
        "meta_arg_of_pericenter": 37.9832,
        "meta_mean_anomaly": 259.24,
        "meta_ephemeris_type": 0,
        "meta_classification_type": "U",
        "meta_norad_cat_id": 66942,
        "meta_element_set_no": 999,
        "meta_rev_at_epoch": 275,
        "meta_bstar": -0.0087099304,
        "meta_mean_motion_dot": -0.01831332,
        "meta_mean_motion_ddot": 0,
        "tle_line1": "1 66942U 25286T   25351.91668981 -.01831332  00000+0 -87099-2 0  9991",
        "tle_line2": "2 66942  53.1553  24.3545 0000404  37.9832 259.2400 15.84942130  2757"
      },
      "geometry": {
        "type": "Point",
        "coordinates": [
          -44.315862765909884,
          -50.78581407355548
        ]
      }
    },
    {
      "type": "Feature",
      "properties": {
        "norad_id": 66943,
        "name": "STARLINK-36109",
        "group": "last-30-days",
        "lat": -49.98867270978736,
        "lon": -40.837044496095075,
        "alt_km": 325.72497529197244,
        "timestamp": "2025-12-18T07:01:53.342894+00:00",
        "meta_object_name": "STARLINK-36109",
        "meta_object_id": "2025-286U",
        "meta_epoch": "2025-12-17T22:00:01.999584",
        "meta_mean_motion": 15.84688629,
        "meta_eccentricity": 7.407e-05,
        "meta_inclination": 53.1552,
        "meta_ra_of_asc_node": 24.3493,
        "meta_arg_of_pericenter": 93.789,
        "meta_mean_anomaly": 205.8919,
        "meta_ephemeris_type": 0,
        "meta_classification_type": "U",
        "meta_norad_cat_id": 66943,
        "meta_element_set_no": 999,
        "meta_rev_at_epoch": 275,
        "meta_bstar": -0.0066767329,
        "meta_mean_motion_dot": -0.01378692,
        "meta_mean_motion_ddot": 0,
        "tle_line1": "1 66943U 25286U   25351.91668981 -.01378692  00000+0 -66767-2 0  9996",
        "tle_line2": "2 66943  53.1552  24.3493 0000740  93.7890 205.8919 15.84688629  2758"
      },
      "geometry": {
        "type": "Point",
        "coordinates": [
          -40.837044496095075,
          -49.98867270978736
        ]
      }
    },
    {
      "type": "Feature",
      "properties": {
        "norad_id": 66944,
        "name": "STARLINK-36112",
        "group": "last-30-days",
        "lat": -49.206547616376355,
        "lon": -37.88499878066723,
        "alt_km": 325.70679905503675,
        "timestamp": "2025-12-18T07:01:53.342908+00:00",
        "meta_object_name": "STARLINK-36112",
        "meta_object_id": "2025-286V",
        "meta_epoch": "2025-12-17T22:00:01.999584",
        "meta_mean_motion": 15.84705416,
        "meta_eccentricity": 8.22e-05,
        "meta_inclination": 53.1553,
        "meta_ra_of_asc_node": 24.3449,
        "meta_arg_of_pericenter": 87.4501,
        "meta_mean_anomaly": 214.2882,
        "meta_ephemeris_type": 0,
        "meta_classification_type": "U",
        "meta_norad_cat_id": 66944,
        "meta_element_set_no": 999,
        "meta_rev_at_epoch": 282,
        "meta_bstar": -0.0067158617,
        "meta_mean_motion_dot": -0.01386762,
        "meta_mean_motion_ddot": 0,
        "tle_line1": "1 66944U 25286V   25351.91668981 -.01386762  00000+0 -67159-2 0  9990",
        "tle_line2": "2 66944  53.1553  24.3449 0000822  87.4501 214.2882 15.84705416  2826"
      },
      "geometry": {
        "type": "Point",
        "coordinates": [
          -37.88499878066723,
          -49.206547616376355
        ]
      }
    },
    {
      "type": "Feature",
      "properties": {
        "norad_id": 66945,
        "name": "STARLINK-36110",
        "group": "last-30-days",
        "lat": -48.205693107813,
        "lon": -34.574723118325856,
        "alt_km": 325.6594250957223,
        "timestamp": "2025-12-18T07:01:53.342918+00:00",
        "meta_object_name": "STARLINK-36110",
        "meta_object_id": "2025-286W",
        "meta_epoch": "2025-12-17T22:00:01.999584",
        "meta_mean_motion": 15.84708004,
        "meta_eccentricity": 7.68e-05,
        "meta_inclination": 53.1552,
        "meta_ra_of_asc_node": 24.3397,
        "meta_arg_of_pericenter": 89.711,
        "meta_mean_anomaly": 214.4396,
        "meta_ephemeris_type": 0,
        "meta_classification_type": "U",
        "meta_norad_cat_id": 66945,
        "meta_element_set_no": 999,
        "meta_rev_at_epoch": 282,
        "meta_bstar": -0.0067663547,
        "meta_mean_motion_dot": -0.01395937,
        "meta_mean_motion_ddot": 0,
        "tle_line1": "1 66945U 25286W   25351.91668981 -.01395937  00000+0 -67664-2 0  9996",
        "tle_line2": "2 66945  53.1552  24.3397 0000768  89.7110 214.4396 15.84708004  2826"
      },
      "geometry": {
        "type": "Point",
        "coordinates": [
          -34.574723118325856,
          -48.205693107813
        ]
      }
    },
    {
      "type": "Feature",
      "properties": {
        "norad_id": 66946,
        "name": "STARLINK-36115",
        "group": "last-30-days",
        "lat": -47.224103522775344,
        "lon": -31.702348811799354,
        "alt_km": 325.6335261412405,
        "timestamp": "2025-12-18T07:01:53.342928+00:00",
        "meta_object_name": "STARLINK-36115",
        "meta_object_id": "2025-286X",
        "meta_epoch": "2025-12-17T22:00:01.999584",
        "meta_mean_motion": 15.84719753,
        "meta_eccentricity": 8.255e-05,
        "meta_inclination": 53.1551,
        "meta_ra_of_asc_node": 24.3352,
        "meta_arg_of_pericenter": 87.8944,
        "meta_mean_anomaly": 218.4193,
        "meta_ephemeris_type": 0,
        "meta_classification_type": "U",
        "meta_norad_cat_id": 66946,
        "meta_element_set_no": 999,
        "meta_rev_at_epoch": 282,
        "meta_bstar": -0.0067988404,
        "meta_mean_motion_dot": -0.01402492,
        "meta_mean_motion_ddot": 0,
        "tle_line1": "1 66946U 25286X   25351.91668981 -.01402492  00000+0 -67988-2 0  9991",
        "tle_line2": "2 66946  53.1551  24.3352 0000825  87.8944 218.4193 15.84719753  2827"
      },
      "geometry": {
        "type": "Point",
        "coordinates": [
          -31.702348811799354,
          -47.224103522775344
        ]
      }
    },
    {
      "type": "Feature",
      "properties": {
        "norad_id": 66947,
        "name": "STARLINK-36089",
        "group": "last-30-days",
        "lat": -44.9442377253629,
        "lon": -26.023017221250075,
        "alt_km": 325.43949385219366,
        "timestamp": "2025-12-18T07:01:53.342937+00:00",
        "meta_object_name": "STARLINK-36089",
        "meta_object_id": "2025-286Y",
        "meta_epoch": "2025-12-17T22:00:01.999584",
        "meta_mean_motion": 15.84731716,
        "meta_eccentricity": 7.188e-05,
        "meta_inclination": 53.1551,
        "meta_ra_of_asc_node": 24.3257,
        "meta_arg_of_pericenter": 82.7703,
        "meta_mean_anomaly": 228.0981,
        "meta_ephemeris_type": 0,
        "meta_classification_type": "U",
        "meta_norad_cat_id": 66947,
        "meta_element_set_no": 999,
        "meta_rev_at_epoch": 282,
        "meta_bstar": -0.0068544949,
        "meta_mean_motion_dot": -0.01441419,
        "meta_mean_motion_ddot": 0,
        "tle_line1": "1 66947U 25286Y   25351.91668981 -.01441419  00000+0 -68545-2 0  9994",
        "tle_line2": "2 66947  53.1551  24.3257 0000718  82.7703 228.0981 15.84731716  2825"
      },
      "geometry": {
        "type": "Point",
        "coordinates": [
          -26.023017221250075,
          -44.9442377253629
        ]
      }
    }
  ]
}